{
    "links": {
        "self": "http://www.neowsapp.com/rest/v1/neo/3760534?api_key=iIulBulltgU6a56xZRHN4H3l9WmuAYTsLGpBGhQ2"
    },
    "id": "3760534",
    "neo_reference_id": "3760534",
    "name": "(2016 TM17)",
    "designation": "2016 TM17",
    "nasa_jpl_url": "http://ssd.jpl.nasa.gov/sbdb.cgi?sstr=3760534",
    "absolute_magnitude_h": 23.5,
    "estimated_diameter": {
        "kilometers": {
            "estimated_diameter_min": 0.0530340723,
            "estimated_diameter_max": 0.1185877909
        },
        "meters": {
            "estimated_diameter_min": 53.0340723319,
            "estimated_diameter_max": 118.5877908577
        },
        "miles": {
            "estimated_diameter_min": 0.0329538346,
            "estimated_diameter_max": 0.0736870142
        },
        "feet": {
            "estimated_diameter_min": 173.9963058693,
            "estimated_diameter_max": 389.0675677576
        }
    },
    "is_potentially_hazardous_asteroid": false,
    "close_approach_data": [
        {
            "close_approach_date": "2016-10-12",
            "close_approach_date_full": "2016-Oct-12 05:34",
            "epoch_date_close_approach": 1476250440000,
            "relative_velocity": {
                "kilometers_per_second": "7.1461722302",
                "kilometers_per_hour": "25726.2200285965",
                "miles_per_hour": "15985.2726616576"
            },
            "miss_distance": {
                "astronomical": "0.2357914226",
                "lunar": "91.7228633914",
                "kilometers": "35273894.585229862",
                "miles": "21918181.7356696156"
            },
            "orbiting_body": "Earth"
        }
    ],
    "orbital_data": {
        "orbit_id": "5",
        "orbit_determination_date": "2017-04-06 08:23:15",
        "first_observation_date": "2016-10-06",
        "last_observation_date": "2016-10-27",
        "data_arc_in_days": 21,
        "observations_used": 20,
        "orbit_uncertainty": "8",
        "minimum_orbit_intersection": ".235686",
        "jupiter_tisserand_invariant": "3.134",
        "epoch_osculation": "2457673.5",
        "eccentricity": ".5376357921291318",
        "semi_major_axis": "2.667139238897877",
        "inclination": "11.41545762211786",
        "ascending_node_longitude": "202.5165472436817",
        "orbital_period": "1590.988205243991",
        "perihelion_distance": "1.233189721474327",
        "perihelion_argument": "177.3449268066908",
        "aphelion_distance": "4.101088756321427",
        "perihelion_time": "2457674.846192614057",
        "mean_anomaly": "359.6953909906666",
        "mean_motion": ".2262744618806216",
        "equinox": "J2000",
        "orbit_class": {
            "orbit_class_type": "AMO",
            "orbit_class_description": "Near-Earth asteroid orbits similar to that of 1221 Amor",
            "orbit_class_range": "1.017 AU < q (perihelion) < 1.3 AU"
        }
    },
    "is_sentry_object": false
}